NORAD_CAT_ID,OBJECT_NAME,OBJECT_TYPE,EPOCH,MEAN_MOTION,ECCENTRICITY,INCLINATION,RA_OF_ASC_NODE,ARG_OF_PERICENTER,MEAN_ANOMALY,BSTAR,MEAN_MOTION_DOT,MEAN_MOTION_DDOT,TLE_LINE0,TLE_LINE1,TLE_LINE2,SEMIMAJOR_AXIS,PERIOD,APOGEE,PERIGEE,DECAYED
52306.0,STARLINK-3747,PAYLOAD,2023-09-01 18:20:33,15.08836108,0.0001521,53.2154,258.8304,91.2195,268.8972,0.00088456,0.00013816,0.0,0 STARLINK-3747,1 52306U 22041AX  23244.76427555  .00013816  00000-0  88456-3 0  9994,2 52306  53.2154 258.8304 0001521  91.2195 268.8972 15.08836108 76986,6917.892,95.438,540.809,538.705,0.0
52306.0,STARLINK-3747,PAYLOAD,2023-09-02 10:14:25,15.0884345,0.0001263,53.2158,255.8525,86.2432,273.8704,3.288e-05,2.35e-06,0.0,0 STARLINK-3747,1 52306U 22041AX  23245.42668938  .00000235  00000-0  32880-4 0  9992,2 52306  53.2158 255.8525 0001263  86.2432 273.8704 15.08843450 77082,6917.87,95.437,540.609,538.861,0.0
52306.0,STARLINK-3747,PAYLOAD,2023-09-02 18:11:21,15.08843505,0.0001358,53.2166,254.365,87.2303,272.8845,3.1257e-05,2.1e-06,0.0,0 STARLINK-3747,1 52306U 22041AX  23245.75788884  .00000210  00000-0  31257-4 0  9991,2 52306  53.2166 254.3650 0001358  87.2303 272.8845 15.08843505 77139,6917.87,95.437,540.674,538.795,0.0
52306.0,STARLINK-3747,PAYLOAD,2023-09-03 11:40:35,15.08845895,0.0001389,53.2153,251.0944,88.432,271.6831,0.00010088,1.318e-05,0.0,0 STARLINK-3747,1 52306U 22041AX  23246.48652377  .00001318  00000-0  10088-3 0  9997,2 52306  53.2153 251.0944 0001389  88.4320 271.6831 15.08845895 77249,6917.862,95.437,540.688,538.766,0.0
52306.0,STARLINK-3747,PAYLOAD,2023-09-03 18:02:09,15.08835387,0.0001455,53.2152,249.9064,84.7081,275.4077,8.6732e-06,-1.5e-06,0.0,0 STARLINK-3747,1 52306U 22041AX  23246.75149353 -.00000150  00000-0  86732-5 0  9997,2 52306  53.2152 249.9064 0001455  84.7081 275.4077 15.08835387 77287,6917.894,95.438,540.766,538.753,0.0
52306.0,STARLINK-3747,PAYLOAD,2023-09-04 09:56:00,15.08834505,0.0001347,53.2158,246.9308,99.0032,261.1113,3.8284e-06,-2.27e-06,0.0,0 STARLINK-3747,1 52306U 22041AX  23247.41389539 -.00000227  00000-0  38284-5 0  9997,2 52306  53.2158 246.9308 0001347  99.0032 261.1113 15.08834505 77381,6917.897,95.438,540.694,538.83,0.0
52306.0,STARLINK-3747,PAYLOAD,2023-09-05 11:22:10,15.08850554,0.0001316,53.2162,242.1739,89.8043,270.31,-0.00015862,-2.812e-05,0.0,0 STARLINK-3747,1 52306U 22041AX  23248.47373247 -.00002812  00000-0 -15862-3 0  9991,2 52306  53.2162 242.1739 0001316  89.8043 270.3100 15.08850554 77545,6917.848,95.437,540.624,538.803,0.0
52306.0,STARLINK-3747,PAYLOAD,2023-09-06 00:05:15,15.08833603,0.000137,53.2161,239.7949,98.5482,261.5665,8.2106e-05,1.019e-05,0.0,0 STARLINK-3747,1 52306U 22041AX  23249.00365739  .00001019  00000-0  82106-4 0  9990,2 52306  53.2161 239.7949 0001370  98.5482 261.5665 15.08833603 77626,6917.9,95.438,540.713,538.817,0.0
52306.0,STARLINK-3747,PAYLOAD,2023-09-06 11:12:57,15.08841495,0.0001417,53.2164,237.7127,97.8783,262.237,0.00011923,1.61e-05,0.0,0 STARLINK-3747,1 52306U 22041AX  23249.46733282  .00001610  00000-0  11923-3 0  9997,2 52306  53.2164 237.7127 0001417  97.8783 262.2370 15.08841495 77699,6917.876,95.437,540.721,538.761,0.0
52306.0,STARLINK-3747,PAYLOAD,2023-09-07 09:28:22,15.08839333,0.000142,53.2172,233.5491,88.1427,271.9727,4.8127e-05,4.78e-06,0.0,0 STARLINK-3747,1 52306U 22041AX  23250.39469934  .00000478  00000-0  48127-4 0  9999,2 52306  53.2172 233.5491 0001420  88.1427 271.9727 15.08839333 77835,6917.882,95.438,540.73,538.765,0.0
52306.0,STARLINK-3747,PAYLOAD,2023-09-08 02:57:36,15.08817382,0.0001898,53.2186,230.2775,92.381,267.7399,0.0003405,5.132e-05,0.0,0 STARLINK-3747,1 52306U 22041AX  23251.12334432  .00005132  00000-0  34050-3 0  9996,2 52306  53.2186 230.2775 0001898  92.3810 267.7399 15.08817382 77941,6917.95,95.439,541.128,538.501,0.0
52306.0,STARLINK-3747,PAYLOAD,2023-09-08 06:08:22,15.08861465,0.0001576,53.2169,229.6848,78.1411,281.9758,-0.00021154,-3.655e-05,0.0,0 STARLINK-3747,1 52306U 22041AX  23251.25581375 -.00003655  00000-0 -21154-3 0  9991,2 52306  53.2169 229.6848 0001576  78.1411 281.9758 15.08861465 77967,6917.815,95.436,540.77,538.59,0.0
52306.0,STARLINK-3747,PAYLOAD,2023-09-08 10:54:30,15.08871813,0.0001507,53.2176,228.7906,89.6887,270.4278,-0.00027176,-4.614e-05,0.0,0 STARLINK-3747,1 52306U 22041AX  23251.45452489 -.00004614  00000-0 -27176-3 0  9992,2 52306  53.2176 228.7906 0001507  89.6887 270.4278 15.08871813 77999,6917.783,95.436,540.691,538.606,0.0
52306.0,STARLINK-3747,PAYLOAD,2023-09-09 02:48:23,15.08841423,0.0001582,53.2158,225.8165,101.7151,258.4018,4.8921e-05,4.91e-06,0.0,0 STARLINK-3747,1 52306U 22041AX  23252.11693849  .00000491  00000-0  48921-4 0  9992,2 52306  53.2158 225.8165 0001582 101.7151 258.4018 15.08841423 78091,6917.876,95.437,540.835,538.647,0.0
52306.0,STARLINK-3747,PAYLOAD,2023-09-09 07:34:32,15.0884405,0.0001494,53.2161,224.9273,81.2163,278.8998,6.9815e-05,8.23e-06,0.0,0 STARLINK-3747,1 52306U 22041AX  23252.31565747  .00000823  00000-0  69815-4 0  9993,2 52306  53.2161 224.9273 0001494  81.2163 278.8998 15.08844050 78128,6917.868,95.437,540.767,538.699,0.0
52306.0,STARLINK-3747,PAYLOAD,2023-09-10 07:25:19,15.08845605,0.0001371,53.2163,220.4658,94.5148,265.6001,4.6504e-05,4.52e-06,0.0,0 STARLINK-3747,1 52306U 22041AX  23253.30925754  .00000452  00000-0  46504-4 0  9999,2 52306  53.2163 220.4658 0001371  94.5148 265.6001 15.08845605 78274,6917.863,95.437,540.677,538.78,0.0
52306.0,STARLINK-3747,PAYLOAD,2023-09-11 07:16:06,15.08848544,0.0001427,53.2172,216.0052,94.462,265.6535,6.5329e-05,7.52e-06,0.0,0 STARLINK-3747,1 52306U 22041AX  23254.30285548  .00000752  00000-0  65329-4 0  9999,2 52306  53.2172 216.0052 0001427  94.4620 265.6535 15.08848544 78423,6917.854,95.437,540.706,538.732,0.0
52306.0,STARLINK-3747,PAYLOAD,2023-09-12 02:20:44,15.08839637,0.000144,53.2168,212.436,92.3554,267.7604,7.3878e-05,8.88e-06,0.0,0 STARLINK-3747,1 52306U 22041AX  23255.09774117  .00000888  00000-0  73878-4 0  9999,2 52306  53.2168 212.4360 0001440  92.3554 267.7604 15.08839637 78544,6917.881,95.438,540.743,538.75,0.0
52306.0,STARLINK-3747,PAYLOAD,2023-09-12 07:06:53,15.08849302,0.0001444,53.2171,211.5457,93.8662,266.2495,9.9087e-05,1.29e-05,0.0,0 STARLINK-3747,1 52306U 22041AX  23255.29645428  .00001290  00000-0  99087-4 0  9991,2 52306  53.2171 211.5457 0001444  93.8662 266.2495 15.08849302 78570,6917.852,95.437,540.716,538.718,0.0
52306.0,STARLINK-3747,PAYLOAD,2023-09-13 03:46:54,15.08846673,0.0001409,53.2162,207.6798,90.8686,269.2467,8.6275e-05,1.086e-05,0.0,0 STARLINK-3747,1 52306U 22041AX  23256.15757740  .00001086  00000-0  86275-4 0  9996,2 52306  53.2162 207.6798 0001409  90.8686 269.2467 15.08846673 78703,6917.86,95.437,540.7,538.75,0.0
52306.0,STARLINK-3747,PAYLOAD,2023-09-13 21:16:09,15.08839512,0.0001244,53.2168,204.41,91.0458,269.0677,-1.6891e-05,-5.57e-06,0.0,0 STARLINK-3747,1 52306U 22041AX  23256.88622551 -.00000557  00000-0 -16891-4 0  9998,2 52306  53.2168 204.4100 0001244  91.0458 269.0677 15.08839512 78815,6917.882,95.438,540.607,538.886,0.0
52306.0,STARLINK-3747,PAYLOAD,2023-09-14 02:02:18,15.08842673,0.0001048,53.2153,203.5169,86.1191,273.9921,1.5289e-05,-4.4e-07,0.0,0 STARLINK-3747,1 52306U 22041AX  23257.08494153 -.00000044  00000-0  15289-4 0  9996,2 52306  53.2153 203.5169 0001048  86.1191 273.9921 15.08842673 78846,6917.872,95.437,540.462,539.012,0.0
52306.0,STARLINK-3747,PAYLOAD,2023-09-14 06:48:27,15.08849174,0.0001075,53.2155,202.6241,83.7138,276.3977,5.8019e-05,6.36e-06,0.0,0 STARLINK-3747,1 52306U 22041AX  23257.28365597  .00000636  00000-0  58019-4 0  9991,2 52306  53.2155 202.6241 0001075  83.7138 276.3977 15.08849174 78877,6917.852,95.437,540.461,538.974,0.0
52306.0,STARLINK-3747,PAYLOAD,2023-09-15 01:53:06,15.08836645,0.0001294,53.2166,199.0558,97.4217,262.6922,-3.0813e-05,-7.78e-06,0.0,0 STARLINK-3747,1 52306U 22041AX  23258.07854930 -.00000778  00000-0 -30813-4 0  9994,2 52306  53.2166 199.0558 0001294  97.4217 262.6922 15.08836645 78992,6917.891,95.438,540.651,538.86,0.0
52306.0,STARLINK-3747,PAYLOAD,2023-09-15 05:03:52,15.08841673,0.0001284,53.2169,198.4618,90.7796,269.3343,2.2969e-05,7.8e-07,0.0,0 STARLINK-3747,1 52306U 22041AX  23258.21102586  .00000078  00000-0  22969-4 0  9997,2 52306  53.2169 198.4618 0001284  90.7796 269.3343 15.08841673 79014,6917.875,95.437,540.629,538.852,0.0
52306.0,STARLINK-3747,PAYLOAD,2023-09-16 01:43:53,15.08839434,0.0001227,53.2172,194.5963,96.8974,263.2158,0.00012375,1.682e-05,0.0,0 STARLINK-3747,1 52306U 22041AX  23259.07214662  .00001682  00000-0  12375-3 0  9992,2 52306  53.2172 194.5963 0001227  96.8974 263.2158 15.08839434 79143,6917.882,95.438,540.596,538.898,0.0
52306.0,STARLINK-3747,PAYLOAD,2023-09-17 03:10:04,15.08839132,0.0001383,53.2172,189.838,87.194,272.9211,7.7669e-05,9.48e-06,0.0,0 STARLINK-3747,1 52306U 22041AX  23260.13199215  .00000948  00000-0  77669-4 0  9999,2 52306  53.2172 189.8380 0001383  87.1940 272.9211 15.08839132 79302,6917.883,95.438,540.705,538.791,0.0
52306.0,STARLINK-3747,PAYLOAD,2023-09-17 04:45:27,15.08843296,0.0001379,53.217,189.5405,86.2783,273.8367,0.00012166,1.649e-05,0.0,0 STARLINK-3747,1 52306U 22041AX  23260.19822954  .00001649  00000-0  12166-3 0  9997,2 52306  53.2170 189.5405 0001379  86.2783 273.8367 15.08843296 79314,6917.87,95.437,540.689,538.781,0.0
52306.0,STARLINK-3747,PAYLOAD,2023-09-18 01:25:27,15.08853689,0.0001472,53.2174,185.6754,97.022,263.094,0.00010363,1.362e-05,0.0,0 STARLINK-3747,1 52306U 22041AX  23261.05934149  .00001362  00000-0  10363-3 0  9992,2 52306  53.2174 185.6754 0001472  97.0220 263.0940 15.08853689 79441,6917.839,95.437,540.722,538.685,0.0
52306.0,STARLINK-3747,PAYLOAD,2023-09-18 18:54:41,15.08847886,0.0001533,53.2176,182.4053,92.7268,267.39,0.00011264,1.505e-05,0.0,0 STARLINK-3747,1 52306U 22041AX  23261.78798477  .00001505  00000-0  11264-3 0  9994,2 52306  53.2176 182.4053 0001533  92.7268 267.3900 15.08847886 79559,6917.856,95.437,540.782,538.661,0.0
